KUIPER-00089            
1 64834U 25151U   25279.00002315 -.00923476  00000+0 -45007-1 0  9994
2 64834  51.8878 254.3233 0006188  90.1468 204.7354 15.20465879  3585
KUIPER-00090            
1 64835U 25151V   25277.43198830  .00050616  00000+0  13879-2 0  9996
2 64835  51.8773 260.9164 0008852  88.0198 272.1802 15.36751412 12318
KUIPER-00091            
1 64836U 25151W   25279.09631260  .00044008  00000+0  17825-2 0  9993
2 64836  51.8797 253.2492 0006225  92.4293 267.7400 15.24223226 12566
KUIPER-00092            
1 64837U 25151X   25279.16668980 -.00989805  00000+0 -72199-1 0  9990
2 64837  51.9110 255.5894 0009161  78.4526 129.2603 15.05896235  5589
KUIPER-00093            
1 64838U 25151Y   25279.16668980 -.01020765  00000+0 -93667-1 0  9996
2 64838  51.8941 257.2763 0015037  94.4671 246.9333 14.97252759  4913
KUIPER-00094            
1 64839U 25151Z   25279.09605649  .00035381  00000+0  16359-2 0  9993
2 64839  51.8839 253.9531 0009059  98.6005 261.6001 15.19800549 12556
KUIPER-00081            
1 65132U 25171A   25279.00757486  .00041173  00000+0  11090-2 0  9993
2 65132  51.8733 136.8249 0004064 329.1130  30.9617 15.37425373  9782
KUIPER-00088            
1 65133U 25171B   25279.16668980 -.00575732  00000+0 -21833-1 0  9991
2 65133  51.8783 136.3516 0007757 310.6951  71.3886 15.28442035  5033
